BIRKELAND               
1 55015U 23001G   26130.51771928  .00005488  00000+0  14233-3 0  9994
2 55015  97.3363 198.4076 0005548 229.1418 130.9347 15.39413282186553
ION SCV-008             
1 55051U 23001AU  26130.52550560  .00004468  00000+0  16531-3 0  9992
2 55051  97.5682 226.2327 0016059 141.8999 218.3379 15.28105608185587
ION SCV-007             
1 55060U 23001BD  26130.40941860  .00000268  00000+0  44709-4 0  9999
2 55060  97.9025 194.1699 0013797  97.5793 262.6985 14.77518123180675
HUYGENS                 
1 55093U 23001CN  26130.51779294  .00005943  00000+0  15382-3 0  9996
2 55093  97.3266 197.6860 0008914 208.9770 151.0982 15.39415858186571
SHARJAHSAT-1            
1 55104U 23001CZ  26130.43437471  .00011434  00000+0  22277-3 0  9991
2 55104  97.3188 198.7154 0004840 225.0904 134.9954 15.47695454186657
HORUS 1                 
1 55690U 23025A   26130.51638323  .00003674  00000+0  15674-3 0  9995
2 55690  97.3473 205.8990 0002071 113.9233 246.2221 15.23535545178312
HORUS 2                 
1 55844U 23032A   26130.48593830  .00003878  00000+0  16604-3 0  9993
2 55844  97.3539 206.6397 0002390 151.3317 208.8052 15.23377713175740
GLOBAL-19               
1 55982U 23041B   26130.50770191  .00009692  00000+0  25817-3 0  9992
2 55982  42.0013  61.7160 0004907  72.8264 287.3112 15.38231648176123
BRO-9                   
1 56185U 23054H   26130.49894729  .00136879  00000+0  70539-3 0  9993
2 56185  97.2986  46.2761 0007548 129.7183 230.4751 15.80741676173108
ION SCV-010             
1 56192U 23054Q   26130.25925037  .00003103  00000+0  12380-3 0  9995
2 56192  97.3825  20.2441 0012388 347.1298  12.9622 15.25862708170417
TELEOS-2                
1 56310U 23057C   26130.36477083  .00003763  00000+0  26413-3 0  9999
2 56310   9.9873 119.5684 0000828 268.0506  91.9613 14.96378540167125
SNIPE 4                 
1 56744U 23072B   26130.56536181  .00013587  00000+0  33252-3 0  9998
2 56744  97.5295 335.4161 0007145 101.4925 258.7124 15.40879260164313
SNIPE 2                 
1 56745U 23072C   26130.51823907  .00016035  00000+0  34187-3 0  9998
2 56745  97.5292 338.1620 0006277 125.5546 234.6288 15.44974946164429
2023-072G               
1 56749U 23072G   26130.54169433  .00018498  00000+0  34915-3 0  9996
2 56749  97.4954 336.9536 0005473 116.3511 243.8302 15.48499214164632
GEISAT PRECURSOR        
1 56934U 23084C   26130.52452072  .00005538  00000+0  17015-3 0  9990
2 56934  97.6169 270.2664 0007273 116.0993 244.0998 15.34122010161757
BLACKJACK ACES-3        
1 56950U 23084U   26130.34232733  .00002859  00000+0  14237-3 0  9994
2 56950  97.6154 265.2644 0004274 120.7071 239.4584 15.18409730161420
BLACKJACK ACES-2        
1 56955U 23084Z   26130.41460329  .00004063  00000+0  20170-3 0  9993
2 56955  97.6150 265.4228 0002627 103.4149 256.7377 15.18267903161443
BLACKJACK ACES-1        
1 56956U 23084AA  26130.33620500  .00004525  00000+0  22379-3 0  9990
2 56956  97.6142 265.1234 0002178  91.6551 268.4932 15.18343710111156
ION SCV-011             
1 56957U 23084AB  26130.49296767  .00003662  00000+0  13524-3 0  9995
2 56957  98.1389 314.2921 0007695 159.6481 200.5064 15.28470124160058
GHOST-3                 
1 56958U 23084AC  26130.39391299  .00011603  00000+0  23430-3 0  9992
2 56958  97.6169 276.9889 0007199  76.7342 283.4710 15.46650360162175
TOMORROW-R2             
1 56962U 23084AG  26130.41477738  .00123328  00000+0  46001-3 0  9990
2 56962  97.5932 289.8498 0001087 311.0794  49.0383 15.87656828163030
AFR-1                   
1 56964U 23084AJ  26130.52126936  .00003415  00000+0  12681-3 0  9996
2 56964  97.6218 266.3285 0011981 109.8359 250.4173 15.28225824161472
METEOR-M2 3             
1 57166U 23091A   26130.50810184 -.00000011  00000+0  14022-4 0  9994
2 57166  98.6111 186.2518 0002764 283.4423  76.6447 14.24043510149157
UMKA 1 (RS40S)          
1 57172U 23091G   26130.51851233  .00003917  00000+0  18279-3 0  9996
2 57172  97.5075 189.3684 0011387 247.4801 112.5229 15.20385446158286
2023-091H               
1 57173U 23091H   26130.46719639  .00006903  00000+0  25662-3 0  9996
2 57173  97.5070 193.3745 0008718 240.6473 119.3896 15.27822646158548
2023-091J               
1 57174U 23091J   26130.51058771  .00002350  00000+0  13414-3 0  9990
2 57174  97.5084 184.1458 0011655 278.6563  81.3348 15.13673904157936
CUBEBEL 2 (EU11S)       
1 57175U 23091K   26130.47982867  .00007174  00000+0  26297-3 0  9990
2 57175  97.5073 193.3833 0008760 242.3773 117.6578 15.28273173158544
SITRO-AIS 5 (KATYS)     
1 57176U 23091L   26130.50458257  .00007252  00000+0  26310-3 0  9999
2 57176  97.5081 194.0680 0010524 229.1531 130.8797 15.28590435158585
ZORKIY-2M 1             
1 57177U 23091M   26130.50622473  .00004502  00000+0  20939-3 0  9999
2 57177  97.5116 189.6008 0012030 244.2533 115.7460 15.20413099158270
CUBESX-HSE 3 (RS42S)    
1 57178U 23091N   26130.51973602  .00008285  00000+0  28521-3 0  9991
2 57178  97.5111 195.6566 0010187 218.2244 141.8275 15.30263486158664
