OBJECT_NAME,OBJECT_ID,EPOCH,MEAN_MOTION,ECCENTRICITY,INCLINATION,RA_OF_ASC_NODE,ARG_OF_PERICENTER,MEAN_ANOMALY,EPHEMERIS_TYPE,CLASSIFICATION_TYPE,NORAD_CAT_ID,ELEMENT_SET_NO,REV_AT_EPOCH,BSTAR,MEAN_MOTION_DOT,MEAN_MOTION_DDOT
BIRKELAND,2023-001G,2026-05-10T12:25:30.945792,15.39413282,.0005548,97.3363,198.4076,229.1418,130.9347,0,U,55015,999,18655,.14233E-3,.5488E-4,0
ION SCV-008,2023-001AU,2026-05-10T12:36:43.683840,15.28105608,.0016059,97.5682,226.2327,141.8999,218.3379,0,U,55051,999,18558,.16531E-3,.4468E-4,0
ION SCV-007,2023-001BD,2026-05-10T09:49:33.767040,14.77518123,.0013797,97.9025,194.1699,97.5793,262.6985,0,U,55060,999,18067,.44709E-4,.268E-5,0
HUYGENS,2023-001CN,2026-05-10T12:25:37.310016,15.39415858,.0008914,97.3266,197.6860,208.9770,151.0982,0,U,55093,999,18657,.15382E-3,.5943E-4,0
SHARJAHSAT-1,2023-001CZ,2026-05-10T10:25:29.974944,15.47695454,.000484,97.3188,198.7154,225.0904,134.9954,0,U,55104,999,18665,.22277E-3,.11434E-3,0
HORUS 1,2023-025A,2026-05-10T12:23:35.511072,15.23535545,.0002071,97.3473,205.8990,113.9233,246.2221,0,U,55690,999,17831,.15674E-3,.3674E-4,0
HORUS 2,2023-032A,2026-05-10T11:39:45.069120,15.23377713,.000239,97.3539,206.6397,151.3317,208.8052,0,U,55844,999,17574,.16604E-3,.3878E-4,0
GLOBAL-19,2023-041B,2026-05-10T12:11:05.445024,15.38231648,.0004907,42.0013,61.7160,72.8264,287.3112,0,U,55982,999,17612,.25817E-3,.9692E-4,0
BRO-9,2023-054H,2026-05-10T11:58:29.045856,15.80741676,.0007548,97.2986,46.2761,129.7183,230.4751,0,U,56185,999,17310,.70539E-3,.136879E-2,0
ION SCV-010,2023-054Q,2026-05-10T06:13:19.231968,15.25862708,.00123883,97.3825,20.2441,347.1298,12.9622,0,U,56192,999,17041,.12379508E-3,.3103E-4,0
TELEOS-2,2023-057C,2026-05-10T08:45:16.199712,14.96378540,.0000828,9.9873,119.5684,268.0506,91.9613,0,U,56310,999,16712,.26413E-3,.3763E-4,0
SNIPE 4,2023-072B,2026-05-10T13:34:07.260384,15.40879260,.0007145,97.5295,335.4161,101.4925,258.7124,0,U,56744,999,16431,.33252E-3,.13587E-3,0
SNIPE 2,2023-072C,2026-05-10T12:26:15.855648,15.44974946,.0006277,97.5292,338.1620,125.5546,234.6288,0,U,56745,999,16442,.34187E-3,.16035E-3,0
2023-072G,2023-072G,2026-05-10T13:00:02.390112,15.48499214,.0005473,97.4954,336.9536,116.3511,243.8302,0,U,56749,999,16463,.34915E-3,.18498E-3,0
GEISAT PRECURSOR,2023-084C,2026-05-10T12:35:18.590208,15.34122010,.0007273,97.6169,270.2664,116.0993,244.0998,0,U,56934,999,16175,.17015E-3,.5538E-4,0
BLACKJACK ACES-3,2023-084U,2026-05-10T08:12:57.081312,15.18409730,.0004274,97.6154,265.2644,120.7071,239.4584,0,U,56950,999,16142,.14237E-3,.2859E-4,0
BLACKJACK ACES-2,2023-084Z,2026-05-10T09:57:01.724256,15.18267903,.0002627,97.6150,265.4228,103.4149,256.7377,0,U,56955,999,16144,.2017E-3,.4063E-4,0
BLACKJACK ACES-1,2023-084AA,2026-05-10T08:04:08.112000,15.18343710,.0002178,97.6142,265.1234,91.6551,268.4932,0,U,56956,999,11115,.22379E-3,.4525E-4,0
ION SCV-011,2023-084AB,2026-05-10T11:49:52.406688,15.28470124,.0007695,98.1389,314.2921,159.6481,200.5064,0,U,56957,999,16005,.13524E-3,.3662E-4,0
GHOST-3,2023-084AC,2026-05-10T09:27:14.082336,15.46650360,.0007199,97.6169,276.9889,76.7342,283.4710,0,U,56958,999,16217,.2343E-3,.11603E-3,0
TOMORROW-R2,2023-084AG,2026-05-10T09:57:16.765632,15.87656828,.0001087,97.5932,289.8498,311.0794,49.0383,0,U,56962,999,16303,.46001E-3,.123328E-2,0
AFR-1,2023-084AJ,2026-05-10T12:30:37.672704,15.28225824,.0011981,97.6218,266.3285,109.8359,250.4173,0,U,56964,999,16147,.12681E-3,.3415E-4,0
METEOR-M2 3,2023-091A,2026-05-10T12:11:39.998976,14.24043510,.0002764,98.6111,186.2518,283.4423,76.6447,0,U,57166,999,14915,.14022E-4,-.11E-6,0
UMKA 1 (RS40S),2023-091G,2026-05-10T12:26:39.465312,15.20385446,.0011387,97.5075,189.3684,247.4801,112.5229,0,U,57172,999,15828,.18279E-3,.3917E-4,0
2023-091H,2023-091H,2026-05-10T11:12:45.768096,15.27822646,.0008718,97.5070,193.3745,240.6473,119.3896,0,U,57173,999,15854,.25662E-3,.6903E-4,0
2023-091J,2023-091J,2026-05-10T12:15:14.778144,15.13673904,.0011655,97.5084,184.1458,278.6563,81.3348,0,U,57174,999,15793,.13414E-3,.235E-4,0
CUBEBEL 2 (EU11S),2023-091K,2026-05-10T11:30:57.197088,15.28273173,.000876,97.5073,193.3833,242.3773,117.6578,0,U,57175,999,15854,.26297E-3,.7174E-4,0
SITRO-AIS 5 (KATYS),2023-091L,2026-05-10T12:06:35.934048,15.28590435,.0010524,97.5081,194.0680,229.1531,130.8797,0,U,57176,999,15858,.2631E-3,.7252E-4,0
ZORKIY-2M 1,2023-091M,2026-05-10T12:08:57.816672,15.20413099,.001203,97.5116,189.6008,244.2533,115.7460,0,U,57177,999,15827,.20939E-3,.4502E-4,0
CUBESX-HSE 3 (RS42S),2023-091N,2026-05-10T12:28:25.192128,15.30263486,.0010187,97.5111,195.6566,218.2244,141.8275,0,U,57178,999,15866,.28521E-3,.8285E-4,0
